start=new Date('2022-03-09T00:00:00.000Z').valueOf();
sats=[{"FILE":"3351330","INCLINATION":"53.0451","RCS_SIZE":"LARGE","TIME_SYSTEM":"UTC","RA_OF_ASC_NODE":"293.9294","TLE_LINE1":"1 47780U 21017BL  22067.89411997  .00000221  00000-0  33774-4 0  9995","REF_FRAME":"TEME","OBJECT_TYPE":"PAYLOAD","SITE":"AFETR","CLASSIFICATION_TYPE":"U","BSTAR":"0.00003377400000","TLE_LINE2":"2 47780  53.0451 293.9294 0001728  58.5299 301.5859 15.06394525 57452","CENTER_NAME":"EARTH","MEAN_MOTION_DOT":"0.00000221","NORAD_CAT_ID":"47780","MEAN_MOTION_DDOT":"0.0000000000000","GP_ID":"198274093","ECCENTRICITY":"0.00017280","MEAN_MOTION":"15.06394525","MEAN_ELEMENT_THEORY":"SGP4","ARG_OF_PERICENTER":"58.5299","MEAN_ANOMALY":"301.5859","PERIOD":"95.592","EPHEMERIS_TYPE":"0","COUNTRY_CODE":"US","SEMIMAJOR_AXIS":"6925.365","EPOCH":"2022-03-08T21:27:31.965408","LAUNCH_DATE":"2021-03-04","OBJECT_ID":"2021-017BL","ELEMENT_SET_NO":"999","PERIAPSIS":"546.034","REV_AT_EPOCH":"5745","DECAY_DATE":null,"APOAPSIS":"548.427","OBJECT_NAME":"STARLINK-2213"},{"EPOCH":"2022-03-08T22:15:19.768032","SEMIMAJOR_AXIS":"6925.373","LAUNCH_DATE":"2021-03-04","OBJECT_ID":"2021-017BM","ELEMENT_SET_NO":"999","EPHEMERIS_TYPE":"0","COUNTRY_CODE":"US","APOAPSIS":"548.295","DECAY_DATE":null,"OBJECT_NAME":"STARLINK-2223","REV_AT_EPOCH":"5741","PERIAPSIS":"546.181","TLE_LINE1":"1 47781U 21017BM  22067.92731213 -.00001764  00000-0 -99607-4 0  9998","REF_FRAME":"TEME","SITE":"AFETR","OBJECT_TYPE":"PAYLOAD","INCLINATION":"53.0529","FILE":"3351330","RA_OF_ASC_NODE":"293.7371","RCS_SIZE":"LARGE","TIME_SYSTEM":"UTC","MEAN_MOTION":"15.06391925","ECCENTRICITY":"0.00015260","GP_ID":"198274344","ARG_OF_PERICENTER":"66.0009","MEAN_ELEMENT_THEORY":"SGP4","PERIOD":"95.593","MEAN_ANOMALY":"294.1140","CLASSIFICATION_TYPE":"U","BSTAR":"-0.00009960700000","NORAD_CAT_ID":"47781","MEAN_MOTION_DOT":"-0.00001764","TLE_LINE2":"2 47781  53.0529 293.7371 0001526  66.0009 294.1140 15.06391925 57419","CENTER_NAME":"EARTH","MEAN_MOTION_DDOT":"0.0000000000000"},{"SEMIMAJOR_AXIS":"6925.395","EPOCH":"2022-03-08T21:06:18.354240","LAUNCH_DATE":"2021-03-11","OBJECT_ID":"2021-018A","ELEMENT_SET_NO":"999","EPHEMERIS_TYPE":"0","COUNTRY_CODE":"US","DECAY_DATE":null,"APOAPSIS":"548.448","OBJECT_NAME":"STARLINK-2257","PERIAPSIS":"546.073","REV_AT_EPOCH":"5626","TLE_LINE1":"1 47787U 21018A   22067.87937910 -.00004208  00000-0 -26388-3 0  9992","REF_FRAME":"TEME","OBJECT_TYPE":"PAYLOAD","SITE":"AFETR","FILE":"3351330","INCLINATION":"53.0541","RCS_SIZE":"LARGE","TIME_SYSTEM":"UTC","RA_OF_ASC_NODE":"333.9427","GP_ID":"198273092","ECCENTRICITY":"0.00017150","MEAN_MOTION":"15.06384721","MEAN_ELEMENT_THEORY":"SGP4","ARG_OF_PERICENTER":"63.4781","PERIOD":"95.593","MEAN_ANOMALY":"296.6383","BSTAR":"-0.00026388000000","CLASSIFICATION_TYPE":"U","TLE_LINE2":"2 47787  53.0541 333.9427 0001715  63.4781 296.6383 15.06384721 56260","CENTER_NAME":"EARTH","NORAD_CAT_ID":"47787","MEAN_MOTION_DOT":"-0.00004208","MEAN_MOTION_DDOT":"0.0000000000000"},{"REV_AT_EPOCH":"5664","PERIAPSIS":"546.064","DECAY_DATE":null,"APOAPSIS":"548.457","OBJECT_NAME":"STARLINK-2314","EPHEMERIS_TYPE":"0","COUNTRY_CODE":"US","SEMIMAJOR_AXIS":"6925.395","EPOCH":"2022-03-08T22:58:27.136992","LAUNCH_DATE":"2021-03-11","OBJECT_ID":"2021-018B","ELEMENT_SET_NO":"999","CLASSIFICATION_TYPE":"U","BSTAR":"0.00000740800000","CENTER_NAME":"EARTH","TLE_LINE2":"2 47788  53.0599 308.5805 0001727  56.2384 303.8769 15.06384687 56646","NORAD_CAT_ID":"47788","MEAN_MOTION_DOT":"-0.00000171","MEAN_MOTION_DDOT":"0.0000000000000","ECCENTRICITY":"0.00017270","GP_ID":"198273342","MEAN_MOTION":"15.06384687","MEAN_ELEMENT_THEORY":"SGP4","ARG_OF_PERICENTER":"56.2384","PERIOD":"95.593","MEAN_ANOMALY":"303.8769","FILE":"3351330","INCLINATION":"53.0599","RCS_SIZE":"LARGE","TIME_SYSTEM":"UTC","RA_OF_ASC_NODE":"308.5805","TLE_LINE1":"1 47788U 21018B   22067.95725853 -.00000171  00000-0  74080-5 0  9991","REF_FRAME":"TEME","OBJECT_TYPE":"PAYLOAD","SITE":"AFETR"},{"RA_OF_ASC_NODE":"313.6786","TIME_SYSTEM":"UTC","RCS_SIZE":"LARGE","INCLINATION":"53.0556","FILE":"3351330","SITE":"AFETR","OBJECT_TYPE":"PAYLOAD","TLE_LINE1":"1 47789U 21018C   22067.94021452 -.00000620  00000-0 -22712-4 0  9999","REF_FRAME":"TEME","MEAN_MOTION_DDOT":"0.0000000000000","BSTAR":"-0.00002271200000","CLASSIFICATION_TYPE":"U","MEAN_MOTION_DOT":"-0.00000620","NORAD_CAT_ID":"47789","CENTER_NAME":"EARTH","TLE_LINE2":"2 47789  53.0556 313.6786 0001775  59.0493 301.0670 15.06380922 56560","MEAN_ANOMALY":"301.0670","PERIOD":"95.593","MEAN_MOTION":"15.06380922","GP_ID":"198273593","ECCENTRICITY":"0.00017750","ARG_OF_PERICENTER":"59.0493","MEAN_ELEMENT_THEORY":"SGP4","COUNTRY_CODE":"US","EPHEMERIS_TYPE":"0","OBJECT_ID":"2021-018C","ELEMENT_SET_NO":"999","EPOCH":"2022-03-08T22:33:54.534528","SEMIMAJOR_AXIS":"6925.407","LAUNCH_DATE":"2021-03-11","PERIAPSIS":"546.043","REV_AT_EPOCH":"5656","OBJECT_NAME":"STARLINK-2315","APOAPSIS":"548.501","DECAY_DATE":null},{"FILE":"3351330","INCLINATION":"53.0548","TIME_SYSTEM":"UTC","RCS_SIZE":"LARGE","RA_OF_ASC_NODE":"303.7879","REF_FRAME":"TEME","TLE_LINE1":"1 47790U 21018D   22067.91532774  .00000453  00000-0  49296-4 0  9990","SITE":"AFETR","OBJECT_TYPE":"PAYLOAD","TLE_LINE2":"2 47790  53.0548 303.7879 0001569  67.8610 292.2545 15.06386938 56706","CENTER_NAME":"EARTH","NORAD_CAT_ID":"47790","MEAN_MOTION_DOT":"0.00000453","BSTAR":"0.00004929600000","CLASSIFICATION_TYPE":"U","MEAN_MOTION_DDOT":"0.0000000000000","MEAN_ELEMENT_THEORY":"SGP4","ARG_OF_PERICENTER":"67.8610","ECCENTRICITY":"0.00015690","GP_ID":"198273844","MEAN_MOTION":"15.06386938","MEAN_ANOMALY":"292.2545","PERIOD":"95.593","EPHEMERIS_TYPE":"0","COUNTRY_CODE":"US","LAUNCH_DATE":"2021-03-11","SEMIMAJOR_AXIS":"6925.389","EPOCH":"2022-03-08T21:58:04.316736","ELEMENT_SET_NO":"999","OBJECT_ID":"2021-018D","PERIAPSIS":"546.167","REV_AT_EPOCH":"5670","DECAY_DATE":null,"APOAPSIS":"548.340","OBJECT_NAME":"STARLINK-2319"},{"EPOCH":"2022-03-08T20:50:24.242496","SEMIMAJOR_AXIS":"6925.401","LAUNCH_DATE":"2021-03-11","OBJECT_ID":"2021-018E","ELEMENT_SET_NO":"999","EPHEMERIS_TYPE":"0","COUNTRY_CODE":"US","APOAPSIS":"548.422","DECAY_DATE":null,"OBJECT_NAME":"STARLINK-2322","PERIAPSIS":"546.110","REV_AT_EPOCH":"5627","TLE_LINE1":"1 47791U 21018E   22067.86833614 -.00000892  00000-0 -40994-4 0  9997","REF_FRAME":"TEME","SITE":"AFETR","OBJECT_TYPE":"PAYLOAD","INCLINATION":"53.0546","FILE":"3351330","RA_OF_ASC_NODE":"333.9992","RCS_SIZE":"LARGE","TIME_SYSTEM":"UTC","MEAN_MOTION":"15.06382804","GP_ID":"198272592","ECCENTRICITY":"0.00016690","ARG_OF_PERICENTER":"61.6781","MEAN_ELEMENT_THEORY":"SGP4","MEAN_ANOMALY":"298.4376","PERIOD":"95.593","BSTAR":"-0.00004099400000","CLASSIFICATION_TYPE":"U","NORAD_CAT_ID":"47791","MEAN_MOTION_DOT":"-0.00000892","TLE_LINE2":"2 47791  53.0546 333.9992 0001669  61.6781 298.4376 15.06382804 56278","CENTER_NAME":"EARTH","MEAN_MOTION_DDOT":"0.0000000000000"},{"FILE":"3351330","INCLINATION":"53.0545","RCS_SIZE":"LARGE","TIME_SYSTEM":"UTC","RA_OF_ASC_NODE":"313.6380","TLE_LINE1":"1 47792U 21018F   22067.94758629 -.00000729  00000-0 -30051-4 0  9991","REF_FRAME":"TEME","OBJECT_TYPE":"PAYLOAD","SITE":"AFETR","BSTAR":"-0.00003005100000","CLASSIFICATION_TYPE":"U","TLE_LINE2":"2 47792  53.0545 313.6380 0001821  54.4416 305.6742 15.06379053 56561","CENTER_NAME":"EARTH","MEAN_MOTION_DOT":"-0.00000729","NORAD_CAT_ID":"47792","MEAN_MOTION_DDOT":"0.0000000000000","ECCENTRICITY":"0.00018210","GP_ID":"198272842","MEAN_MOTION":"15.06379053","MEAN_ELEMENT_THEORY":"SGP4","ARG_OF_PERICENTER":"54.4416","PERIOD":"95.593","MEAN_ANOMALY":"305.6742","EPHEMERIS_TYPE":"0","COUNTRY_CODE":"US","SEMIMAJOR_AXIS":"6925.413","EPOCH":"2022-03-08T22:44:31.455456","LAUNCH_DATE":"2021-03-11","OBJECT_ID":"2021-018F","ELEMENT_SET_NO":"999","REV_AT_EPOCH":"5656","PERIAPSIS":"546.017","DECAY_DATE":null,"APOAPSIS":"548.539","OBJECT_NAME":"STARLINK-2334"},{"OBJECT_NAME":"STARLINK-2338","APOAPSIS":"548.488","DECAY_DATE":null,"REV_AT_EPOCH":"5655","PERIAPSIS":"546.086","OBJECT_ID":"2021-018G","ELEMENT_SET_NO":"999","EPOCH":"2022-03-08T23:05:46.413600","SEMIMAJOR_AXIS":"6925.422","LAUNCH_DATE":"2021-03-11","COUNTRY_CODE":"US","EPHEMERIS_TYPE":"0","PERIOD":"95.594","MEAN_ANOMALY":"308.2014","MEAN_MOTION":"15.06375938","ECCENTRICITY":"0.00017340","GP_ID":"198274094","ARG_OF_PERICENTER":"51.9131","MEAN_ELEMENT_THEORY":"SGP4","MEAN_MOTION_DDOT":"0.0000000000000","BSTAR":"-0.00006381500000","CLASSIFICATION_TYPE":"U","MEAN_MOTION_DOT":"-0.00001231","NORAD_CAT_ID":"47793","TLE_LINE2":"2 47793  53.0570 313.5721 0001734  51.9131 308.2014 15.06375938 56555","CENTER_NAME":"EARTH","SITE":"AFETR","OBJECT_TYPE":"PAYLOAD","TLE_LINE1":"1 47793U 21018G   22067.96234275 -.00001231  00000-0 -63815-4 0  9993","REF_FRAME":"TEME","RA_OF_ASC_NODE":"313.5721","TIME_SYSTEM":"UTC","RCS_SIZE":"LARGE","INCLINATION":"53.0570","FILE":"3351330"},{"TLE_LINE1":"1 47794U 21018H   22067.89967753 -.00002165  00000-0 -12658-3 0  9995","REF_FRAME":"TEME","SITE":"AFETR","OBJECT_TYPE":"PAYLOAD","FILE":"3351330","INCLINATION":"53.0546","RCS_SIZE":"LARGE","TIME_SYSTEM":"UTC","RA_OF_ASC_NODE":"313.8630","GP_ID":"198274345","ECCENTRICITY":"0.00019500","MEAN_MOTION":"15.06371718","MEAN_ELEMENT_THEORY":"SGP4","ARG_OF_PERICENTER":"45.3660","MEAN_ANOMALY":"314.7487","PERIOD":"95.594","CLASSIFICATION_TYPE":"U","BSTAR":"-0.00012658000000","TLE_LINE2":"2 47794  53.0546 313.8630 0001950  45.3660 314.7487 15.06371718 56553","CENTER_NAME":"EARTH","NORAD_CAT_ID":"47794","MEAN_MOTION_DOT":"-0.00002165","MEAN_MOTION_DDOT":"0.0000000000000","SEMIMAJOR_AXIS":"6925.435","EPOCH":"2022-03-08T21:35:32.138592","LAUNCH_DATE":"2021-03-11","OBJECT_ID":"2021-018H","ELEMENT_SET_NO":"999","EPHEMERIS_TYPE":"0","COUNTRY_CODE":"US","DECAY_DATE":null,"APOAPSIS":"548.651","OBJECT_NAME":"STARLINK-2341","PERIAPSIS":"545.950","REV_AT_EPOCH":"5655"}];
